STARLINK-2439
1 28104C 21027N   21325.15363398 -.00000086  00000-0 -57403-5 0  3253
2 28104  53.0567   2.5445 0001720  57.4904  62.4313 15.06390448    14
